{
 "type": "Feature",
 "properties": {
  "name": "Abkhazia",
  "brk_a3": "B35",
  "claimed_by": "Georgia",
  "wikidataid": "Q23334"
 },
 "geometry": {
  "type": "Polygon",
  "coordinates": [
   [
    [
     42.15433396100008,
     43.217497744000056
    ],
    [
     42.14030154800014,
     43.19384959600008
    ],
    [
     42.12934614400007,
     43.16785635000011
    ],
    [
     42.13296349500007,
     43.13920176900004
    ],
    [
     42.13348025900012,
     43.11142568600009
    ],
    [
     42.12918148800014,
     43.10339409300008
    ],
    [
     42.11942426900009,
     43.083210354000116
    ],
    [
     42.099477167000146,
     43.05899994600013
    ],
    [
     42.076326125000094,
     43.03969879800009
    ],
    [
     42.0573091980001,
     43.01688365300001
    ],
    [
     42.00511600100003,
     43.000476386000045
    ],
    [
     41.9456366550001,
     42.9928652710001
    ],
    [
     41.907964308000146,
     42.987247219000054
    ],
    [
     41.900218604000145,
     42.97978302200009
    ],
    [
     41.88450320800018,
     42.9646387800001
    ],
    [
     41.90217654800006,
     42.94792145400007
    ],
    [
     41.910651483000095,
     42.927070014000094
    ],
    [
     41.917759787000136,
     42.89998379000011
    ],
    [
     41.91817191700005,
     42.89841336700002
    ],
    [
     41.925844354000105,
     42.882266547000114
    ],
    [
     41.930908644000056,
     42.86063996000004
    ],
    [
     41.91550906800012,
     42.84518870700005
    ],
    [
     41.90300337100007,
     42.839349270000056
    ],
    [
     41.89225467300014,
     42.83084849700005
    ],
    [
     41.891531203000056,
     42.820073961000034
    ],
    [
     41.89886925600018,
     42.81087555600003
    ],
    [
     41.90951460100018,
     42.76485769300011
    ],
    [
     41.908793714000126,
     42.75740538400008
    ],
    [
     41.90817101400012,
     42.7390194770001
    ],
    [
     41.912201776000074,
     42.71462820100007
    ],
    [
     41.94041710800013,
     42.678997301000095
    ],
    [
     41.94413948300013,
     42.655088199000076
    ],
    [
     41.947135044000106,
     42.635847480000066
    ],
    [
     41.9383500510001,
     42.61799327200002
    ],
    [
     41.9203666520001,
     42.60972504300007
    ],
    [
     41.899489374000154,
     42.59711599400005
    ],
    [
     41.88668794900008,
     42.58223394700008
    ],
    [
     41.88365278400016,
     42.58003919000002
    ],
    [
     41.803681268000105,
     42.52221100500009
    ],
    [
     41.72256939400012,
     42.48644230000008
    ],
    [
     41.71735794400013,
     42.48508698700002
    ],
    [
     41.6648783710001,
     42.47143891000009
    ],
    [
     41.6512693840001,
     42.45883580400003
    ],
    [
     41.6292216330001,
     42.438417670000035
    ],
    [
     41.591291131000105,
     42.420770169000036
    ],
    [
     41.58001222100006,
     42.416734663000085
    ],
    [
     41.55622044500012,
     42.40822215100009
    ],
    [
     41.551194863000035,
     42.406457421000084
    ],
    [
     41.50017337300005,
     42.64057038000004
    ],
    [
     41.482758009000065,
     42.68024323100008
    ],
    [
     41.457367384000065,
     42.71369049700007
    ],
    [
     41.42432701900009,
     42.739894924000055
    ],
    [
     41.383474155000044,
     42.75726959800005
    ],
    [
     41.307302280000044,
     42.767645575000074
    ],
    [
     41.291026238000086,
     42.77435944200005
    ],
    [
     41.27491295700008,
     42.78530508000006
    ],
    [
     41.250743035000085,
     42.79523346600007
    ],
    [
     41.225352410000085,
     42.80231354400007
    ],
    [
     41.20533287900008,
     42.80442942900004
    ],
    [
     41.193695509000065,
     42.80190664300005
    ],
    [
     41.17359459700003,
     42.79279205900008
    ],
    [
     41.160899285000085,
     42.79083893400008
    ],
    [
     41.15023847700007,
     42.79564036700003
    ],
    [
     41.10474694100009,
     42.846584377000056
    ],
    [
     41.08179772200003,
     42.90814850500004
    ],
    [
     41.04029381600009,
     42.96133047100005
    ],
    [
     41.02312259200005,
     42.98997630400004
    ],
    [
     40.998383009000065,
     42.989447333000044
    ],
    [
     40.958994988000086,
     42.97638580900008
    ],
    [
     40.93376712300005,
     42.98273346600007
    ],
    [
     40.90398196700005,
     43.01634349200003
    ],
    [
     40.88656660200007,
     43.02415599200003
    ],
    [
     40.88624108200008,
     43.029282945000034
    ],
    [
     40.86280358200008,
     43.05898672100005
    ],
    [
     40.85596764400009,
     43.06305573100008
    ],
    [
     40.78305097700007,
     43.08417389500005
    ],
    [
     40.68287194100009,
     43.09430573100008
    ],
    [
     40.63624108200008,
     43.09247467700004
    ],
    [
     40.60401451900009,
     43.08649323100008
    ],
    [
     40.591807488000086,
     43.085638739000046
    ],
    [
     40.57992597700007,
     43.08881256700005
    ],
    [
     40.56072024800005,
     43.10297272300005
    ],
    [
     40.55054772200003,
     43.10610586100006
    ],
    [
     40.54607181100005,
     43.10883209800005
    ],
    [
     40.52898196700005,
     43.122259833000044
    ],
    [
     40.520192905000044,
     43.12726471600007
    ],
    [
     40.51026451900009,
     43.12995026200008
    ],
    [
     40.478526238000086,
     43.134019273000035
    ],
    [
     40.39828535200007,
     43.16233958500004
    ],
    [
     40.36117597700007,
     43.16547272300005
    ],
    [
     40.33513431100005,
     43.14085521000004
    ],
    [
     40.32504316500007,
     43.14883047100005
    ],
    [
     40.31031334700003,
     43.17572663000004
    ],
    [
     40.30103600400008,
     43.188666083000044
    ],
    [
     40.278330925000034,
     43.205511786000045
    ],
    [
     40.26840254000007,
     43.21637604400007
    ],
    [
     40.27279707100007,
     43.24799225500004
    ],
    [
     40.25717207100007,
     43.277411200000074
    ],
    [
     40.23519941500007,
     43.30442942900004
    ],
    [
     40.219086134000065,
     43.31903717700004
    ],
    [
     40.188243035000085,
     43.32957591400009
    ],
    [
     40.133474155000044,
     43.34162018400008
    ],
    [
     40.10132897200003,
     43.36517975500004
    ],
    [
     40.086924675000034,
     43.370306708000044
    ],
    [
     40.04078209700003,
     43.37579987200007
    ],
    [
     40.009776238000086,
     43.38515859600005
    ],
    [
     39.985976355436605,
     43.38898960974838
    ],
    [
     39.991284627000084,
     43.40631805500006
    ],
    [
     40.05918746000009,
     43.53519907700009
    ],
    [
     40.07283003800012,
     43.551063742000096
    ],
    [
     40.096704549000094,
     43.56263926200005
    ],
    [
     40.164297323000085,
     43.57584259000002
    ],
    [
     40.2331303310001,
     43.575765076000025
    ],
    [
     40.4798336180001,
     43.50874074300002
    ],
    [
     40.51962447100004,
     43.50517506900003
    ],
    [
     40.550837036000075,
     43.51124705100007
    ],
    [
     40.61553592900009,
     43.53584503200007
    ],
    [
     40.65191613800005,
     43.53897145600011
    ],
    [
     40.68106164500006,
     43.52806772900006
    ],
    [
     40.689965576000134,
     43.523129317
    ],
    [
     40.740179484000066,
     43.495279033000045
    ],
    [
     40.8427055250001,
     43.46938914000002
    ],
    [
     40.87495161900006,
     43.45564320900006
    ],
    [
     41.01179081300006,
     43.37541554800008
    ],
    [
     41.04248661300011,
     43.369834494000045
    ],
    [
     41.146666300000106,
     43.379859721000074
    ],
    [
     41.18077274600006,
     43.37469207800008
    ],
    [
     41.21312219300006,
     43.36278066000004
    ],
    [
     41.243921346000036,
     43.344202982000084
    ],
    [
     41.27875126100008,
     43.333195903000004
    ],
    [
     41.35027144300011,
     43.34335032200006
    ],
    [
     41.380657185000075,
     43.334772034000125
    ],
    [
     41.38975223800014,
     43.324875997000035
    ],
    [
     41.40380822800006,
     43.301518250000086
    ],
    [
     41.41310998500006,
     43.291286317000115
    ],
    [
     41.427579386000104,
     43.283198954000014
    ],
    [
     41.47977258300011,
     43.27123586100008
    ],
    [
     41.50612756400005,
     43.25978953100007
    ],
    [
     41.550569295000116,
     43.22627736500006
    ],
    [
     41.57754439300004,
     43.21529612300007
    ],
    [
     41.61413130700009,
     43.21302236000004
    ],
    [
     41.68740848800013,
     43.220205383000106
    ],
    [
     41.7237886960001,
     43.21723398900009
    ],
    [
     41.78890100100011,
     43.20356557300009
    ],
    [
     41.82032027200012,
     43.20124013300004
    ],
    [
     41.88998010300014,
     43.2070278930001
    ],
    [
     41.91933231600012,
     43.205942689000025
    ],
    [
     41.94827111800009,
     43.20007741300013
    ],
    [
     41.97969038900004,
     43.18865692100003
    ],
    [
     42.01131636500014,
     43.18186147100009
    ],
    [
     42.04335575400012,
     43.18056956000002
    ],
    [
     42.07529178900012,
     43.1852721150001
    ],
    [
     42.15433396100008,
     43.217497744000056
    ]
   ]
  ]
 }
}