{
 "type": "Feature",
 "properties": {
  "name": "South Ossetia",
  "brk_a3": "B37",
  "claimed_by": "Georgia",
  "wikidataid": "Q23427"
 },
 "geometry": {
  "type": "Polygon",
  "coordinates": [
   [
    [
     43.782525649000036,
     42.7532129830001
    ],
    [
     43.800612834000106,
     42.74646169000009
    ],
    [
     43.8117749430001,
     42.71726450700005
    ],
    [
     43.78872725400004,
     42.693079936000075
    ],
    [
     43.75379398600006,
     42.67465728800006
    ],
    [
     43.725682007000046,
     42.65440012700007
    ],
    [
     43.722581421000086,
     42.624867045000045
    ],
    [
     43.751106812000046,
     42.598744609000036
    ],
    [
     43.79616866000009,
     42.58983042400003
    ],
    [
     43.84500288900006,
     42.587039897000054
    ],
    [
     43.8853621830001,
     42.579210918000044
    ],
    [
     43.90816053600014,
     42.566282989000015
    ],
    [
     43.92081221600006,
     42.55910878600007
    ],
    [
     43.93972578900008,
     42.55220998200009
    ],
    [
     43.95843265800005,
     42.55440623
    ],
    [
     43.973212118000106,
     42.5639922080001
    ],
    [
     43.998016805000134,
     42.589365336000085
    ],
    [
     44.01150435400007,
     42.60032074000007
    ],
    [
     44.05506758600012,
     42.615306905000054
    ],
    [
     44.15082401600006,
     42.61866587400006
    ],
    [
     44.185803459000056,
     42.62650810100003
    ],
    [
     44.197384481000086,
     42.6291045120001
    ],
    [
     44.21135073000005,
     42.63963427100002
    ],
    [
     44.224101196000106,
     42.62817433700006
    ],
    [
     44.2444617110001,
     42.604764913000096
    ],
    [
     44.26332360800012,
     42.57977935800011
    ],
    [
     44.27882653800003,
     42.584404399000064
    ],
    [
     44.29918705200009,
     42.584404399000064
    ],
    [
     44.314793335000104,
     42.56021982900009
    ],
    [
     44.333396851000145,
     42.53991099100007
    ],
    [
     44.363989299000195,
     42.52510569300006
    ],
    [
     44.37396285000011,
     42.50014597600007
    ],
    [
     44.394323364000115,
     42.47994049100008
    ],
    [
     44.37876875800009,
     42.46976023400002
    ],
    [
     44.3545841880001,
     42.45490326000008
    ],
    [
     44.383419637000145,
     42.440123800000066
    ],
    [
     44.4092578530001,
     42.42994354300001
    ],
    [
     44.434114217000115,
     42.440123800000066
    ],
    [
     44.45369958500004,
     42.43459442200006
    ],
    [
     44.48398197400007,
     42.39477773100005
    ],
    [
     44.51457442200012,
     42.37457224600006
    ],
    [
     44.54413334200012,
     42.36986969000007
    ],
    [
     44.573898967000105,
     42.349535014000054
    ],
    [
     44.59415612800012,
     42.349535014000054
    ],
    [
     44.62929610200018,
     42.33005299900006
    ],
    [
     44.61906416800008,
     42.309744161000125
    ],
    [
     44.60418135600014,
     42.29493886300011
    ],
    [
     44.59880700700006,
     42.28008188900007
    ],
    [
     44.61906416800008,
     42.26455312100006
    ],
    [
     44.64397220900014,
     42.22473643000005
    ],
    [
     44.64397220900014,
     42.205254415000056
    ],
    [
     44.64872644000013,
     42.19429901200007
    ],
    [
     44.63932133000009,
     42.17476532000006
    ],
    [
     44.64397220900014,
     42.139702861000046
    ],
    [
     44.60893558800012,
     42.12952260400007
    ],
    [
     44.58935022000014,
     42.114691468000046
    ],
    [
     44.59880700700006,
     42.09440846800004
    ],
    [
     44.583200724000164,
     42.06944875100005
    ],
    [
     44.55436527500012,
     42.039760641000086
    ],
    [
     44.538655640000115,
     42.02030446400009
    ],
    [
     44.51457442200012,
     42.000021464000085
    ],
    [
     44.49699992100011,
     41.99650477400007
    ],
    [
     44.4638281660001,
     41.989867045000025
    ],
    [
     44.44429447400012,
     42.01012420700003
    ],
    [
     44.4240373130001,
     42.01012420700003
    ],
    [
     44.3990259200001,
     41.99451792400009
    ],
    [
     44.363989299000195,
     41.989867045000025
    ],
    [
     44.333396851000145,
     42.000021464000085
    ],
    [
     44.30797320800019,
     42.006493238000076
    ],
    [
     44.293709351000075,
     42.01012420700003
    ],
    [
     44.293709351000075,
     42.024877828000044
    ],
    [
     44.293709351000075,
     42.049915060000046
    ],
    [
     44.2842525640001,
     42.06006947900009
    ],
    [
     44.26608802300018,
     42.06893513700001
    ],
    [
     44.25391849800019,
     42.07487477700003
    ],
    [
     44.203947388000074,
     42.09988617000002
    ],
    [
     44.183690226000124,
     42.08970591300006
    ],
    [
     44.17898767100013,
     42.06469451900006
    ],
    [
     44.159557332000134,
     42.054643453000025
    ],
    [
     44.159557332000134,
     42.06469451900006
    ],
    [
     44.14932539900013,
     42.08027496400008
    ],
    [
     44.13836999500006,
     42.09988617000002
    ],
    [
     44.11418542500013,
     42.145103048000095
    ],
    [
     44.09392826300012,
     42.170114441000095
    ],
    [
     44.05878828900018,
     42.18957061800009
    ],
    [
     44.039357951000056,
     42.180268860000055
    ],
    [
     43.979309937000096,
     42.145103048000095
    ],
    [
     43.94964766400011,
     42.145103048000095
    ],
    [
     43.91450769000005,
     42.15448232000006
    ],
    [
     43.919106893000105,
     42.145103048000095
    ],
    [
     43.89890140800014,
     42.09988617000002
    ],
    [
     43.854356323000104,
     42.105338033000095
    ],
    [
     43.86376143400014,
     42.08027496400008
    ],
    [
     43.82872481300012,
     42.054643453000025
    ],
    [
     43.80908776900009,
     42.054643453000025
    ],
    [
     43.78423140500013,
     42.08027496400008
    ],
    [
     43.78423140500013,
     42.110014750000076
    ],
    [
     43.70852543100011,
     42.114691468000046
    ],
    [
     43.70852543100011,
     42.08970591300006
    ],
    [
     43.693642619000116,
     42.08027496400008
    ],
    [
     43.659329468000124,
     42.09988617000002
    ],
    [
     43.61871179200011,
     42.124871725000105
    ],
    [
     43.61871179200011,
     42.14983144200009
    ],
    [
     43.60304766000013,
     42.1660964460001
    ],
    [
     43.599178101000064,
     42.170114441000095
    ],
    [
     43.599178101000064,
     42.18957061800009
    ],
    [
     43.588946167000074,
     42.20993113200011
    ],
    [
     43.59442386900008,
     42.2301366170001
    ],
    [
     43.61256275100004,
     42.2457970630001
    ],
    [
     43.628840373000116,
     42.25985056600008
    ],
    [
     43.6362163820001,
     42.26858290700007
    ],
    [
     43.653851766000116,
     42.28946116200012
    ],
    [
     43.583675171000095,
     42.309744161000125
    ],
    [
     43.57427006000012,
     42.33005299900006
    ],
    [
     43.599178101000064,
     42.35503855400013
    ],
    [
     43.56403812700012,
     42.37997243300002
    ],
    [
     43.56645653100014,
     42.40044913700008
    ],
    [
     43.56874068200011,
     42.41978912400005
    ],
    [
     43.56403812700012,
     42.44939972000009
    ],
    [
     43.583675171000095,
     42.50014597600007
    ],
    [
     43.583675171000095,
     42.52973073400011
    ],
    [
     43.56403812700012,
     42.55476796500011
    ],
    [
     43.559387248000064,
     42.584404399000064
    ],
    [
     43.599178101000064,
     42.604764913000096
    ],
    [
     43.63442142700018,
     42.644581604000024
    ],
    [
     43.688940064000064,
     42.654632670000055
    ],
    [
     43.70852543100011,
     42.689850159000116
    ],
    [
     43.7545174560002,
     42.689850159000116
    ],
    [
     43.77405114700008,
     42.71480987600009
    ],
    [
     43.7826294350001,
     42.74522145600007
    ],
    [
     43.782525649000036,
     42.7532129830001
    ]
   ]
  ]
 }
}