{
 "type": "Feature",
 "properties": {
  "name": "Transnistria",
  "brk_a3": "B36",
  "claimed_by": "Moldova",
  "wikidataid": "Q907112"
 },
 "geometry": {
  "type": "Polygon",
  "coordinates": [
   [
    [
     29.898825724000062,
     46.553128561000065
    ],
    [
     29.890660848000095,
     46.55811533600006
    ],
    [
     29.870817098000174,
     46.576434632000115
    ],
    [
     29.867768188000156,
     46.5804137170001
    ],
    [
     29.867485033000094,
     46.58041519700005
    ],
    [
     29.85293705200013,
     46.58049123200003
    ],
    [
     29.84032800300011,
     46.582248230000104
    ],
    [
     29.839873981000125,
     46.58253020200007
    ],
    [
     29.830509481000036,
     46.588346049000066
    ],
    [
     29.823584839000063,
     46.60098093700009
    ],
    [
     29.823370230000165,
     46.600873784000015
    ],
    [
     29.786997925000122,
     46.58271331800003
    ],
    [
     29.77593916800012,
     46.5804137170001
    ],
    [
     29.742969604000052,
     46.59297109000002
    ],
    [
     29.728190145000127,
     46.59410797200012
    ],
    [
     29.728305773000102,
     46.594313533000076
    ],
    [
     29.73563155100007,
     46.607337138000034
    ],
    [
     29.74793054200009,
     46.61731069000004
    ],
    [
     29.76229659000012,
     46.624442037000065
    ],
    [
     29.77593916800012,
     46.62886037200008
    ],
    [
     29.758885946000163,
     46.658496806000116
    ],
    [
     29.74912360200014,
     46.665431324000025
    ],
    [
     29.728190145000127,
     46.6698139450001
    ],
    [
     29.720955444000168,
     46.66800527000001
    ],
    [
     29.711653686000147,
     46.664646302000094
    ],
    [
     29.703488810000124,
     46.664646302000094
    ],
    [
     29.7033864200001,
     46.66490387600008
    ],
    [
     29.700181519000125,
     46.67296620700006
    ],
    [
     29.69584069800007,
     46.67565338200008
    ],
    [
     29.6957208660001,
     46.67566573600004
    ],
    [
     29.685815470000136,
     46.67668691000007
    ],
    [
     29.6665918380001,
     46.67601511700008
    ],
    [
     29.666840556000068,
     46.67634766700006
    ],
    [
     29.689742879000107,
     46.7069693000001
    ],
    [
     29.698114461000074,
     46.727639873000015
    ],
    [
     29.689794556000095,
     46.748310445000115
    ],
    [
     29.679821004000104,
     46.76407175700011
    ],
    [
     29.664938192000136,
     46.80091705400011
    ],
    [
     29.65243249500014,
     46.813241883000074
    ],
    [
     29.647161499000134,
     46.81437876400008
    ],
    [
     29.628144572000053,
     46.813241883000074
    ],
    [
     29.62039310700007,
     46.81486969000011
    ],
    [
     29.61677575700017,
     46.818616232000124
    ],
    [
     29.614812052000133,
     46.823163758000064
    ],
    [
     29.61140140800012,
     46.826858623000064
    ],
    [
     29.616672404000127,
     46.826858623000064
    ],
    [
     29.618842814000118,
     46.83181956000003
    ],
    [
     29.618171020000148,
     46.83771067300012
    ],
    [
     29.614812052000133,
     46.84052703900008
    ],
    [
     29.608920939000143,
     46.83954518700011
    ],
    [
     29.60571700000017,
     46.83745229100005
    ],
    [
     29.603443237000135,
     46.83528188100006
    ],
    [
     29.60075606300012,
     46.8343517050001
    ],
    [
     29.590214071000048,
     46.82365468400009
    ],
    [
     29.576881551000128,
     46.80246734700005
    ],
    [
     29.56272220900007,
     46.786886902000106
    ],
    [
     29.54938968900015,
     46.793346456000066
    ],
    [
     29.54251672400008,
     46.793346456000066
    ],
    [
     29.53227803000007,
     46.78385527800009
    ],
    [
     29.530837850000125,
     46.78252024400011
    ],
    [
     29.512079305000128,
     46.786886902000106
    ],
    [
     29.51186040000013,
     46.78711350900002
    ],
    [
     29.49812666800014,
     46.801330465000035
    ],
    [
     29.5016406660001,
     46.82065745100009
    ],
    [
     29.495026082000095,
     46.82830556300006
    ],
    [
     29.494405965000112,
     46.83778818800005
    ],
    [
     29.495542847000138,
     46.84895029700007
    ],
    [
     29.494095907000144,
     46.86163686200011
    ],
    [
     29.488669881000163,
     46.872463074000066
    ],
    [
     29.476629272000082,
     46.889490459000086
    ],
    [
     29.474252157000137,
     46.898921407000046
    ],
    [
     29.474252157000137,
     46.92297678700008
    ],
    [
     29.471151571000092,
     46.94137359700008
    ],
    [
     29.461786617000172,
     46.95108221800011
    ],
    [
     29.459886108000035,
     46.95305247000006
    ],
    [
     29.459745322000117,
     46.95307726100006
    ],
    [
     29.436114950000075,
     46.957238261000086
    ],
    [
     29.416167847000054,
     46.95232900000006
    ],
    [
     29.39725427200011,
     46.94251047800009
    ],
    [
     29.376170288000083,
     46.93491404200003
    ],
    [
     29.350022013000086,
     46.93672271800003
    ],
    [
     29.33531523400015,
     46.943879141000096
    ],
    [
     29.33265873200017,
     46.94517181400002
    ],
    [
     29.316328979000133,
     46.95842681900011
    ],
    [
     29.303409871000127,
     46.97467905700003
    ],
    [
     29.295503377000074,
     46.991964824000036
    ],
    [
     29.309300985000135,
     46.98808909100008
    ],
    [
     29.325010620000086,
     46.98808909100008
    ],
    [
     29.341392049000063,
     46.991706442000066
    ],
    [
     29.366868530000147,
     47.00268768300005
    ],
    [
     29.370537557000063,
     47.00253265400009
    ],
    [
     29.372862996000094,
     47.00395375600009
    ],
    [
     29.378030640000105,
     47.012480367000094
    ],
    [
     29.377222334000095,
     47.01225364700008
    ],
    [
     29.373793172000063,
     47.011291809000085
    ],
    [
     29.373562751000094,
     47.01164018300004
    ],
    [
     29.36945235200008,
     47.01785471600006
    ],
    [
     29.36428470900006,
     47.03289255800006
    ],
    [
     29.370434204000134,
     47.03289255800006
    ],
    [
     29.37948974700012,
     47.029305339000075
    ],
    [
     29.380565695000143,
     47.02887911800006
    ],
    [
     29.381131226000036,
     47.02865509100009
    ],
    [
     29.382578166000144,
     47.04152252200009
    ],
    [
     29.378030640000105,
     47.070513001000066
    ],
    [
     29.371726115000087,
     47.07841949500002
    ],
    [
     29.37134549200013,
     47.0786877030001
    ],
    [
     29.36376256000011,
     47.08403106800007
    ],
    [
     29.329558146000124,
     47.10813344400009
    ],
    [
     29.32933429400009,
     47.108206799000115
    ],
    [
     29.30511519400008,
     47.11614329100007
    ],
    [
     29.29864192600016,
     47.119901962000114
    ],
    [
     29.295503377000074,
     47.12172434500009
    ],
    [
     29.291524292000105,
     47.12844228100002
    ],
    [
     29.29286787900014,
     47.13510854100012
    ],
    [
     29.2926246400001,
     47.13589501300008
    ],
    [
     29.291317586000133,
     47.14012115500009
    ],
    [
     29.290875665000073,
     47.140192433000024
    ],
    [
     29.278501831000142,
     47.14218821200005
    ],
    [
     29.26444584100014,
     47.14802764900013
    ],
    [
     29.264370796000065,
     47.148080583000066
    ],
    [
     29.249976440000097,
     47.1582337450001
    ],
    [
     29.249860226000095,
     47.15826925500002
    ],
    [
     29.236953979000162,
     47.16221283000009
    ],
    [
     29.22723881000013,
     47.149009501000094
    ],
    [
     29.22103763800004,
     47.149009501000094
    ],
    [
     29.220807336000092,
     47.149267076000086
    ],
    [
     29.213182821000117,
     47.15779449500009
    ],
    [
     29.212765283000124,
     47.15796133900004
    ],
    [
     29.20057377100008,
     47.162832947000055
    ],
    [
     29.1881714270001,
     47.16249705000007
    ],
    [
     29.179386434000122,
     47.15583079100006
    ],
    [
     29.180213257000048,
     47.14508209300004
    ],
    [
     29.1881714270001,
     47.134488424000054
    ],
    [
     29.194269246000175,
     47.123584697000084
    ],
    [
     29.18967004400011,
     47.11144073500009
    ],
    [
     29.17969649200012,
     47.10929616300011
    ],
    [
     29.167190796000114,
     47.11247426400007
    ],
    [
     29.156545451000113,
     47.11335276300011
    ],
    [
     29.148277222000075,
     47.09629954100008
    ],
    [
     29.130603882000088,
     47.08157175700008
    ],
    [
     29.12471276900007,
     47.07387196900008
    ],
    [
     29.118902872000035,
     47.07796689600006
    ],
    [
     29.09897790500017,
     47.09201039700011
    ],
    [
     29.098682979000102,
     47.09214918600013
    ],
    [
     29.08492191600007,
     47.09862498000011
    ],
    [
     29.069522339000088,
     47.101260478000114
    ],
    [
     29.069620948000164,
     47.10142139500002
    ],
    [
     29.078927450000123,
     47.116608378000095
    ],
    [
     29.0946370850001,
     47.134643453000095
    ],
    [
     29.112413778000132,
     47.149629619000066
    ],
    [
     29.14486657700013,
     47.162677918000014
    ],
    [
     29.16367679800007,
     47.19159088200007
    ],
    [
     29.179386434000122,
     47.19675852500008
    ],
    [
     29.16367679800007,
     47.23050323500004
    ],
    [
     29.16333332400015,
     47.23089574100001
    ],
    [
     29.125324315000142,
     47.274330592000084
    ],
    [
     29.093810262000176,
     47.31034332300004
    ],
    [
     29.08047774200014,
     47.33225413000008
    ],
    [
     29.07923750800012,
     47.34767954500008
    ],
    [
     29.08864261900007,
     47.35127105700006
    ],
    [
     29.123059123000132,
     47.32905019200011
    ],
    [
     29.139698934000137,
     47.32910186800004
    ],
    [
     29.154323364000106,
     47.335948995000095
    ],
    [
     29.165227091000162,
     47.34767954500008
    ],
    [
     29.13949222800008,
     47.375714010000095
    ],
    [
     29.105695841000113,
     47.39051930800011
    ],
    [
     29.08290653500012,
     47.40615142900006
    ],
    [
     29.09070967600013,
     47.437053935000066
    ],
    [
     29.10750451700011,
     47.45390045200013
    ],
    [
     29.110966838000138,
     47.4637189740001
    ],
    [
     29.10828720100011,
     47.469364620000135
    ],
    [
     29.104197225000092,
     47.47798166900009
    ],
    [
     29.093190145000108,
     47.48712839800007
    ],
    [
     29.09298137300007,
     47.48721738300006
    ],
    [
     29.049058472000127,
     47.50593861900008
    ],
    [
     29.048899093000074,
     47.50606638800008
    ],
    [
     29.0335555420001,
     47.518366801000056
    ],
    [
     29.025183960000135,
     47.53275868800007
    ],
    [
     29.021669963000164,
     47.549941101000044
    ],
    [
     29.021049845000107,
     47.57079254200009
    ],
    [
     29.0161922610001,
     47.5818512980001
    ],
    [
     28.99335127800009,
     47.60451141400006
    ],
    [
     28.9868400470001,
     47.622003886000115
    ],
    [
     28.989320516000078,
     47.62688730900004
    ],
    [
     28.99397139500013,
     47.63869537400005
    ],
    [
     28.995831746000135,
     47.6506584680001
    ],
    [
     28.990664103000142,
     47.65613617000008
    ],
    [
     28.988390340000137,
     47.66050282800008
    ],
    [
     28.98094893400011,
     47.687193706000116
    ],
    [
     28.975987996000157,
     47.74323679600006
    ],
    [
     28.98094893400011,
     47.76530263300005
    ],
    [
     29.018052612000105,
     47.826590882000104
    ],
    [
     29.018672729000144,
     47.85330759700007
    ],
    [
     28.98094893400011,
     47.87521840400011
    ],
    [
     28.980600237000118,
     47.87528907800001
    ],
    [
     28.942262270000157,
     47.883059392000064
    ],
    [
     28.86136967000013,
     47.8994546510001
    ],
    [
     28.840924819000122,
     47.910550929000095
    ],
    [
     28.829330282000114,
     47.91684377100003
    ],
    [
     28.830570516000137,
     47.94076995900012
    ],
    [
     28.813413940000174,
     47.965135397000054
    ],
    [
     28.785130861000113,
     47.98259390100013
    ],
    [
     28.78449282500017,
     47.982517337000104
    ],
    [
     28.75419274900011,
     47.978881328000085
    ],
    [
     28.719466186000147,
     47.99872507800008
    ],
    [
     28.698485555000076,
     48.0223928840001
    ],
    [
     28.681845744000128,
     48.03066111300005
    ],
    [
     28.651976766000132,
     48.019085592000096
    ],
    [
     28.643191772000137,
     48.02332305900006
    ],
    [
     28.636267131000153,
     48.02993764300005
    ],
    [
     28.631254517000087,
     48.033503317000026
    ],
    [
     28.61931726100005,
     48.03257314100007
    ],
    [
     28.61073897300011,
     48.02921417300006
    ],
    [
     28.55978601100017,
     47.99825999000005
    ],
    [
     28.53808190900017,
     47.99378997800004
    ],
    [
     28.528211711000097,
     48.009008688000065
    ],
    [
     28.532810913000134,
     48.01978322400009
    ],
    [
     28.543662964000106,
     48.02890411400007
    ],
    [
     28.56309330200017,
     48.04037628200008
    ],
    [
     28.589810018000122,
     48.06244211900008
    ],
    [
     28.597303101000165,
     48.06709299800005
    ],
    [
     28.607328328000108,
     48.06709299800005
    ],
    [
     28.618490438000123,
     48.06368235300003
    ],
    [
     28.627585490000087,
     48.06295888300012
    ],
    [
     28.631254517000087,
     48.07073618600005
    ],
    [
     28.632753133000108,
     48.08424957300011
    ],
    [
     28.62985925300012,
     48.09169097900012
    ],
    [
     28.62071252400014,
     48.09497243300012
    ],
    [
     28.60898197400013,
     48.09567006500002
    ],
    [
     28.58355717000012,
     48.10176788400007
    ],
    [
     28.55554854300013,
     48.115513815000014
    ],
    [
     28.53808190900017,
     48.11990631100009
    ],
    [
     28.517721395000137,
     48.12060394300009
    ],
    [
     28.501081584000104,
     48.11282664000005
    ],
    [
     28.51932336400006,
     48.14912933400002
    ],
    [
     28.54159590600011,
     48.15595062300007
    ],
    [
     28.573635295000116,
     48.1549687710001
    ],
    [
     28.665619344000106,
     48.12933726000004
    ],
    [
     28.735072469000073,
     48.12869130500006
    ],
    [
     28.771245972000088,
     48.12445383700002
    ],
    [
     28.799254598000118,
     48.11179311100007
    ],
    [
     28.805920858000036,
     48.10380910300002
    ],
    [
     28.808349650000082,
     48.09657440200006
    ],
    [
     28.809176473000008,
     48.08977895200009
    ],
    [
     28.81155358900014,
     48.08290598600003
    ],
    [
     28.827573283000106,
     48.057016094000105
    ],
    [
     28.83077722100009,
     48.030867818999994
    ],
    [
     28.83253422100006,
     48.02482167600006
    ],
    [
     28.83925215600007,
     48.01828460700007
    ],
    [
     28.855685262000037,
     48.007923483000056
    ],
    [
     28.862085148000034,
     48.00050207700009
    ],
    [
     28.88255700700006,
     47.97676259399999
    ],
    [
     28.914803101000103,
     47.953146464000085
    ],
    [
     28.93608673600005,
     47.94216435600002
    ],
    [
     28.95035648600006,
     47.93480133100009
    ],
    [
     28.980845581000068,
     47.92637807200002
    ],
    [
     29.017225790000055,
     47.93108062800009
    ],
    [
     29.061047404000135,
     47.969760437999994
    ],
    [
     29.092725057000052,
     47.98017323800012
    ],
    [
     29.11003666200014,
     47.979656474000066
    ],
    [
     29.12398929800014,
     47.975987447000065
    ],
    [
     29.136288290000095,
     47.968184306000055
    ],
    [
     29.147967163000146,
     47.95536855100006
    ],
    [
     29.155821981000088,
     47.93986562100007
    ],
    [
     29.164606974000094,
     47.90560414700006
    ],
    [
     29.172565145000135,
     47.891005554000074
    ],
    [
     29.186621134000063,
     47.88364166300009
    ],
    [
     29.225998576000052,
     47.87558014000008
    ],
    [
     29.23602380300008,
     47.870722555000086
    ],
    [
     29.23276818800008,
     47.857079976000065
    ],
    [
     29.21742028800014,
     47.84289479600001
    ],
    [
     29.198920125000114,
     47.829484762000064
    ],
    [
     29.186724487000077,
     47.81821930000011
    ],
    [
     29.177732788000043,
     47.80070098900005
    ],
    [
     29.177836141000085,
     47.78971974700006
    ],
    [
     29.187447957000074,
     47.783208517000006
    ],
    [
     29.221967814000095,
     47.77481109600002
    ],
    [
     29.23473189300006,
     47.76680125000006
    ],
    [
     29.2386076250001,
     47.756000875000026
    ],
    [
     29.226670369000146,
     47.74323679600003
    ],
    [
     29.196956421000067,
     47.71750193300004
    ],
    [
     29.191478719000088,
     47.68626352900007
    ],
    [
     29.192408895000142,
     47.65091685000006
    ],
    [
     29.182073609000042,
     47.61321889300011
    ],
    [
     29.1561837160001,
     47.58278147400004
    ],
    [
     29.130500529000102,
     47.559630433000066
    ],
    [
     29.117426391000066,
     47.53332712800001
    ],
    [
     29.130397176000088,
     47.493200378
    ],
    [
     29.130500529000102,
     47.493097026000086
    ],
    [
     29.13060388200006,
     47.49304535000006
    ],
    [
     29.130655558000058,
     47.492941997000045
    ],
    [
     29.137188792000074,
     47.48400843200001
    ],
    [
     29.140008993000095,
     47.48015208000005
    ],
    [
     29.15561527500003,
     47.44999888100007
    ],
    [
     29.163883504000097,
     47.43937937400007
    ],
    [
     29.182073609000042,
     47.429870911000094
    ],
    [
     29.192408895000142,
     47.4358137010001
    ],
    [
     29.20186568200012,
     47.44658823700003
    ],
    [
     29.218350464000082,
     47.45160085000002
    ],
    [
     29.23261315900004,
     47.44632985500006
    ],
    [
     29.250699910000094,
     47.42537506100008
    ],
    [
     29.28139571100013,
     47.41147410100008
    ],
    [
     29.288217001000078,
     47.40077708000008
    ],
    [
     29.2927128500001,
     47.38886566200004
    ],
    [
     29.30082605000007,
     47.378194479000044
    ],
    [
     29.31467533300014,
     47.372716777000065
    ],
    [
     29.330384969000136,
     47.37049469000006
    ],
    [
     29.345836222000116,
     47.365843811000005
    ],
    [
     29.358910360000095,
     47.352717998000045
    ],
    [
     29.3640780020001,
     47.336879171000035
    ],
    [
     29.36449141500009,
     47.32243560800002
    ],
    [
     29.36759200000006,
     47.30822459000005
    ],
    [
     29.37088151900008,
     47.30443393300003
    ],
    [
     29.380821167000136,
     47.29298004100009
    ],
    [
     29.394463745000053,
     47.284711813000044
    ],
    [
     29.409553263000134,
     47.27975087600002
    ],
    [
     29.4255729570001,
     47.27866567000011
    ],
    [
     29.44169600400005,
     47.28212799100005
    ],
    [
     29.459162638000123,
     47.29349680600005
    ],
    [
     29.466087280000067,
     47.30744944200005
    ],
    [
     29.470634806000135,
     47.32274566700009
    ],
    [
     29.480866740000124,
     47.338274435000116
    ],
    [
     29.501072225000087,
     47.33982472800004
    ],
    [
     29.52096765200008,
     47.33892039000007
    ],
    [
     29.539881225000045,
     47.3342178350001
    ],
    [
     29.556572714000083,
     47.324037578000045
    ],
    [
     29.57006026200014,
     47.30677764900004
    ],
    [
     29.579258667000147,
     47.283600769000046
    ],
    [
     29.580188843000087,
     47.26044972700005
    ],
    [
     29.568716675000076,
     47.243138123000065
    ],
    [
     29.544015340000044,
     47.234249777000045
    ],
    [
     29.540397990000088,
     47.212545675000044
    ],
    [
     29.550629923000088,
     47.160171611000024
    ],
    [
     29.544842163000112,
     47.135573629000035
    ],
    [
     29.53037276200007,
     47.12368805000001
    ],
    [
     29.50866866000007,
     47.11939890600003
    ],
    [
     29.480866740000124,
     47.11748687800012
    ],
    [
     29.478592976000073,
     47.11464467400005
    ],
    [
     29.477869507000094,
     47.11154408800009
    ],
    [
     29.478696330000048,
     47.10846934100006
    ],
    [
     29.480866740000124,
     47.1052395630001
    ],
    [
     29.511459188000117,
     47.066017151000025
    ],
    [
     29.52014082900007,
     47.059919332000064
    ],
    [
     29.530992879000053,
     47.066017151000025
    ],
    [
     29.539726197000107,
     47.07888458200004
    ],
    [
     29.551353394000046,
     47.0902017210001
    ],
    [
     29.57016361500007,
     47.091441956000054
    ],
    [
     29.583392781000043,
     47.08521494500006
    ],
    [
     29.5948649500001,
     47.07459543900008
    ],
    [
     29.60209965000007,
     47.06100453800006
    ],
    [
     29.603029826000125,
     47.04575998900005
    ],
    [
     29.59543339000004,
     47.03214325000003
    ],
    [
     29.583392781000043,
     47.0227898160001
    ],
    [
     29.57248905500012,
     47.0117568970001
    ],
    [
     29.564995972000077,
     46.97449819000006
    ],
    [
     29.56062574300006,
     46.96125639500009
    ],
    [
     29.559828329000084,
     46.95884023000012
    ],
    [
     29.558691447000058,
     46.94574025500005
    ],
    [
     29.567476440000064,
     46.93465566000005
    ],
    [
     29.5731608480001,
     46.933725485000096
    ],
    [
     29.598482300000057,
     46.935379130000044
    ],
    [
     29.607577352000135,
     46.93202016300002
    ],
    [
     29.623286987000085,
     46.91954030400005
    ],
    [
     29.631865275000052,
     46.91439849900003
    ],
    [
     29.648091675000046,
     46.91041941400006
    ],
    [
     29.68085453300006,
     46.908559062000066
    ],
    [
     29.69615075700011,
     46.90468332900009
    ],
    [
     29.712480509000045,
     46.89344370600004
    ],
    [
     29.73583825700007,
     46.867192078000116
    ],
    [
     29.75413171400004,
     46.85801951100002
    ],
    [
     29.78575769000014,
     46.854660543000094
    ],
    [
     29.81521325700004,
     46.856624248000045
    ],
    [
     29.84363529400008,
     46.85414377900007
    ],
    [
     29.872212361000038,
     46.8377106730001
    ],
    [
     29.876914917000136,
     46.83078603100002
    ],
    [
     29.884873087000074,
     46.812673442000104
    ],
    [
     29.889627319000056,
     46.80716990200001
    ],
    [
     29.898515666000094,
     46.80665313800007
    ],
    [
     29.90771407000011,
     46.81094228200003
    ],
    [
     29.917429240000047,
     46.81396535300006
    ],
    [
     29.928177938000147,
     46.8097537230001
    ],
    [
     29.930658406000134,
     46.803087464
    ],
    [
     29.930451701000095,
     46.781641744000055
    ],
    [
     29.931795288000046,
     46.77244333900008
    ],
    [
     29.935671021000076,
     46.765156962999995
    ],
    [
     29.94667810100009,
     46.750739238000065
    ],
    [
     29.951122273000067,
     46.743116964000095
    ],
    [
     29.952620890000105,
     46.72469431600008
    ],
    [
     29.94440433800014,
     46.662475891
    ],
    [
     29.94027022300014,
     46.650797017000016
    ],
    [
     29.935412638000116,
     46.64185699500008
    ],
    [
     29.931898641000146,
     46.632374369000004
    ],
    [
     29.931278524000106,
     46.61917104100003
    ],
    [
     29.93494755000006,
     46.6088357550001
    ],
    [
     29.947401570000068,
     46.58834604900004
    ],
    [
     29.949675334000062,
     46.57886342400006
    ],
    [
     29.938099812000132,
     46.55734019000003
    ],
    [
     29.91608565200005,
     46.554368795000116
    ],
    [
     29.898825724000062,
     46.553128561000065
    ]
   ]
  ]
 }
}